STARLINK-2292
1 48023U 21024AY  26092.73633842  .00028038  00000+0  78174-3 0  9991
2 48023  53.1216 220.2836 0001407  55.7462 304.3674 15.36575786278301
